NORAD_CAT_ID,OBJECT_NAME,OBJECT_TYPE,EPOCH,MEAN_MOTION,ECCENTRICITY,INCLINATION,RA_OF_ASC_NODE,ARG_OF_PERICENTER,MEAN_ANOMALY,BSTAR,MEAN_MOTION_DOT,MEAN_MOTION_DDOT,TLE_LINE0,TLE_LINE1,TLE_LINE2,SEMIMAJOR_AXIS,PERIOD,APOGEE,PERIGEE,DECAYED
55668.0,STARLINK-5455,PAYLOAD,2023-09-10 13:22:56,14.99301824,0.0003164,69.9987,301.8238,267.4186,92.6612,5.5901e-05,5.9e-06,0.0,0 STARLINK-5455,1 55668U 23021AS  23253.55759891  .00000590  00000-0  55901-4 0  9990,2 55668  69.9987 301.8238 0003164 267.4186  92.6612 14.99301824 32803,6947.189,96.045,571.252,566.856,0.0
55668.0,STARLINK-5455,PAYLOAD,2023-09-11 10:11:53,14.99291441,0.0002975,69.999,299.6331,267.1777,92.9042,0.00014706,1.706e-05,0.0,0 STARLINK-5455,1 55668U 23021AS  23254.42492134  .00001706  00000-0  14706-3 0  9998,2 55668  69.9990 299.6331 0002975 267.1777  92.9042 14.99291441 32631,6947.221,96.045,571.153,567.02,0.0
55668.0,STARLINK-5455,PAYLOAD,2023-09-11 13:24:01,14.99296671,0.0002997,69.9988,299.2963,265.7083,94.3734,4.5033e-05,4.57e-06,0.0,0 STARLINK-5455,1 55668U 23021AS  23254.55835478  .00000457  00000-0  45033-4 0  9994,2 55668  69.9988 299.2963 0002997 265.7083  94.3734 14.99296671 32952,6947.205,96.045,571.152,566.988,0.0
55668.0,STARLINK-5455,PAYLOAD,2023-09-12 10:12:56,14.99375352,0.0003027,69.9986,297.1059,263.182,96.8995,-0.0012182,-0.00014997,0.0,0 STARLINK-5455,1 55668U 23021AS  23255.42565727 -.00014997  00000-0 -12182-2 0  9991,2 55668  69.9986 297.1059 0003027 263.1820  96.8995 14.99375352 32780,6946.962,96.04,570.93,566.724,0.0
55668.0,STARLINK-5455,PAYLOAD,2023-09-12 13:25:06,14.99330143,0.0002896,69.9986,296.769,265.6697,94.4132,-0.00047416,-5.895e-05,0.0,0 STARLINK-5455,1 55668U 23021AS  23255.55909738 -.00005895  00000-0 -47416-3 0  9995,2 55668  69.9986 296.7690 0002896 265.6697  94.4132 14.99330143 33101,6947.102,96.043,570.979,566.955,0.0
55668.0,STARLINK-5455,PAYLOAD,2023-09-13 10:14:02,14.99306525,0.0003302,69.9984,294.5784,270.9935,89.0846,5.5395e-05,5.84e-06,0.0,0 STARLINK-5455,1 55668U 23021AS  23256.42641603  .00000584  00000-0  55395-4 0  9990,2 55668  69.9984 294.5784 0003302 270.9935  89.0846 14.99306525 32935,6947.175,96.044,571.334,566.746,0.0
55668.0,STARLINK-5455,PAYLOAD,2023-09-13 11:50:06,14.99306696,0.000321,69.9985,294.4101,270.662,89.4172,8.7143e-05,9.73e-06,0.0,0 STARLINK-5455,1 55668U 23021AS  23256.49313169  .00000973  00000-0  87143-4 0  9998,2 55668  69.9985 294.4101 0003210 270.6620  89.4172 14.99306696 33244,6947.174,96.044,571.269,566.809,0.0
55668.0,STARLINK-5455,PAYLOAD,2023-09-13 19:50:28,14.99338018,0.0002735,70.0004,293.5669,278.4193,81.6656,-0.0006903,-8.538e-05,0.0,0 STARLINK-5455,1 55668U 23021AS  23256.82671391 -.00008538  00000-0 -69030-3 0  9990,2 55668  70.0004 293.5669 0002735 278.4193  81.6656 14.99338018 33299,6947.077,96.042,570.842,567.042,0.0
55668.0,STARLINK-5455,PAYLOAD,2023-09-14 02:14:46,14.99298474,0.0002909,69.9991,292.8937,270.4072,89.6754,-8.6161e-06,-1.99e-06,0.0,0 STARLINK-5455,1 55668U 23021AS  23257.09359098 -.00000199  00000-0 -86161-5 0  9998,2 55668  69.9991 292.8937 0002909 270.4072  89.6754 14.99298474 33032,6947.2,96.045,571.086,567.044,0.0
55668.0,STARLINK-5455,PAYLOAD,2023-09-14 10:15:08,14.99286078,0.0002791,70.0,292.0536,260.6484,99.436,-9.2032e-05,-1.219e-05,0.0,0 STARLINK-5455,1 55668U 23021AS  23257.42718675 -.00001219  00000-0 -92032-4 0  9992,2 55668  70.0000 292.0536 0002791 260.6484  99.4360 14.99286078 33084,6947.238,96.046,571.042,567.164,0.0
55668.0,STARLINK-5455,PAYLOAD,2023-09-14 11:51:13,14.99286666,0.0003077,69.9993,291.884,267.2172,92.8635,-0.00014047,-1.812e-05,0.0,0 STARLINK-5455,1 55668U 23021AS  23257.49390485 -.00001812  00000-0 -14047-3 0  9992,2 55668  69.9993 291.8840 0003077 267.2172  92.8635 14.99286666 33391,6947.236,96.046,571.239,566.963,0.0
55668.0,STARLINK-5455,PAYLOAD,2023-09-14 19:51:34,14.99292003,0.0003242,69.999,291.0405,270.0757,90.0031,-7.4173e-05,-1.001e-05,0.0,0 STARLINK-5455,1 55668U 23021AS  23257.82748537 -.00001001  00000-0 -74173-4 0  9991,2 55668  69.9990 291.0405 0003242 270.0757  90.0031 14.99292003 33440,6947.22,96.045,571.337,566.832,0.0
55668.0,STARLINK-5455,PAYLOAD,2023-09-15 03:51:56,14.99297182,0.0003245,69.9986,290.1976,264.8196,95.2593,-7.7916e-05,-1.047e-05,0.0,0 STARLINK-5455,1 55668U 23021AS  23258.16106680 -.00001047  00000-0 -77916-4 0  9994,2 55668  69.9986 290.1976 0003245 264.8196  95.2593 14.99297182 33194,6947.204,96.045,571.323,566.814,0.0
55668.0,STARLINK-5455,PAYLOAD,2023-09-15 11:52:17,14.99300723,0.00031,69.9985,289.355,261.9094,98.1714,-7.995e-05,-1.072e-05,0.0,0 STARLINK-5455,1 55668U 23021AS  23258.49464938 -.00001072  00000-0 -79950-4 0  9991,2 55668  69.9985 289.3550 0003100 261.9094  98.1714 14.99300723 33548,6947.193,96.045,571.211,566.904,0.0
55668.0,STARLINK-5455,PAYLOAD,2023-09-16 10:17:18,14.99296795,0.0003285,69.9987,286.9962,264.6555,95.423,0.00017373,2.032e-05,0.0,0 STARLINK-5455,1 55668U 23021AS  23259.42868160  .00002032  00000-0  17373-3 0  9995,2 55668  69.9987 286.9962 0003285 264.6555  95.4230 14.99296795 33384,6947.205,96.045,571.352,566.788,0.0
55668.0,STARLINK-5455,PAYLOAD,2023-09-16 11:53:22,14.99298049,0.0003352,69.9987,286.8278,265.733,94.3447,0.00018083,2.119e-05,0.0,0 STARLINK-5455,1 55668U 23021AS  23259.49539752  .00002119  00000-0  18083-3 0  9999,2 55668  69.9987 286.8278 0003352 265.7330  94.3447 14.99298049 33697,6947.201,96.045,571.395,566.737,0.0
55668.0,STARLINK-5455,PAYLOAD,2023-09-17 02:18:47,14.98800892,0.0003714,70.0021,285.3138,257.6338,102.4406,-0.0050366,-0.0006041,0.0,0 STARLINK-5455,1 55668U 23021AS  23260.09637785 -.00060410  00000-0 -50366-2 0  9991,2 55668  70.0021 285.3138 0003714 257.6338 102.4406 14.98800892 33485,6948.737,96.077,573.183,568.021,0.0
55668.0,STARLINK-5455,PAYLOAD,2023-09-17 11:55:28,14.98734209,0.000313,69.9992,284.3049,265.0478,95.0324,-0.0051991,-0.00062229,0.0,0 STARLINK-5455,1 55668U 23021AS  23260.49685481 -.00062229  00000-0 -51991-2 0  9996,2 55668  69.9992 284.3049 0003130 265.0478  95.0324 14.98734209 33843,6948.943,96.081,572.983,568.633,0.0
55668.0,STARLINK-5455,PAYLOAD,2023-09-17 16:44:41,14.98074007,0.0002556,70.0003,283.8032,205.8411,154.2621,-0.012017,-0.00139724,0.0,0 STARLINK-5455,1 55668U 23021AS  23260.69769691 -.00139724  00000-0 -12017-1 0  9994,2 55668  70.0003 283.8032 0002556 205.8411 154.2621 14.98074007 33576,6950.985,96.123,574.626,571.073,0.0
55668.0,STARLINK-5455,PAYLOAD,2023-09-18 06:00:00,14.98356494,0.0003084,70.0005,282.4056,268.6262,193.9525,-0.0039176,-0.0004656,0.0,0 STARLINK-5455,1 55668U 23021AS  23261.25001157 -.00046560  00000-0 -39176-2 0  9994,2 55668  70.0005 282.4056 0003084 268.6262 193.9525 14.98356494 33652,6950.111,96.105,574.119,569.833,0.0
55668.0,STARLINK-5455,PAYLOAD,2023-09-18 14:00:01,14.98334557,0.0003038,70.0002,281.565,273.5107,186.5613,-0.00078745,-9.477e-05,0.0,0 STARLINK-5455,1 55668U 23021AS  23261.58334491 -.00009477  00000-0 -78745-3 0  9992,2 55668  70.0002 281.5650 0003038 273.5107 186.5613 14.98334557  5810,6950.179,96.107,574.155,569.932,0.0
55668.0,STARLINK-5455,PAYLOAD,2023-09-18 22:00:00,14.9829557,0.0003028,70.0003,280.7245,266.7833,190.785,0.0059073,0.00071048,0.0,0 STARLINK-5455,1 55668U 23021AS  23261.91667824  .00071048  00000-0  59073-2 0  9991,2 55668  70.0003 280.7245 0003028 266.7833 190.7850 14.98295570 33756,6950.299,96.109,574.269,570.06,0.0
55668.0,STARLINK-5455,PAYLOAD,2023-09-19 06:00:00,14.98410673,0.0002862,70.0006,279.8838,268.5736,186.5165,-0.0066972,-0.00079271,0.0,0 STARLINK-5455,1 55668U 23021AS  23262.25001157 -.00079271  00000-0 -66972-2 0  9994,2 55668  70.0006 279.8838 0002862 268.5736 186.5165 14.98410673 33804,6949.943,96.102,573.798,569.819,0.0
55668.0,STARLINK-5455,PAYLOAD,2023-09-20 06:00:00,14.983231,0.0002894,70.0008,277.3621,262.5697,184.9924,-0.0023636,-0.00028177,0.0,0 STARLINK-5455,1 55668U 23021AS  23263.25001157 -.00028177  00000-0 -23636-2 0  9994,2 55668  70.0008 277.3621 0002894 262.5697 184.9924 14.98323100 33953,6950.214,96.107,574.091,570.068,0.0
55668.0,STARLINK-5455,PAYLOAD,2023-09-20 10:25:05,14.9831776,0.0002748,69.9994,276.8994,260.4074,99.6775,-0.00018154,-2.258e-05,0.0,0 STARLINK-5455,1 55668U 23021AS  23263.43408616 -.00002258  00000-0 -18154-3 0  9997,2 55668  69.9994 276.8994 0002748 260.4074  99.6775 14.98317760 33989,6950.231,96.108,574.006,570.186,0.0
55668.0,STARLINK-5455,PAYLOAD,2023-09-21 02:26:25,14.98326987,0.000291,69.9987,275.2152,264.3372,95.7455,-0.00027495,-3.372e-05,0.0,0 STARLINK-5455,1 55668U 23021AS  23264.10168569 -.00003372  00000-0 -27495-3 0  9998,2 55668  69.9987 275.2152 0002910 264.3372  95.7455 14.98326987 34080,6950.202,96.107,574.09,570.045,0.0
55668.0,STARLINK-5455,PAYLOAD,2023-09-21 12:03:13,14.98331418,0.0002766,69.9992,274.2056,264.6068,95.4775,-0.00028676,-3.513e-05,0.0,0 STARLINK-5455,1 55668U 23021AS  23264.50224397 -.00003513  00000-0 -28676-3 0  9993,2 55668  69.9992 274.2056 0002766 264.6068  95.4775 14.98331418 34449,6950.189,96.107,573.976,570.131,0.0
55668.0,STARLINK-5455,PAYLOAD,2023-09-21 18:27:46,14.9833137,0.0002765,69.9991,273.5321,263.5806,96.5038,-0.0002577,-3.166e-05,0.0,0 STARLINK-5455,1 55668U 23021AS  23264.76928258 -.00003166  00000-0 -25770-3 0  9994,2 55668  69.9991 273.5321 0002765 263.5806  96.5038 14.98331370 34487,6950.189,96.107,573.975,570.132,0.0
55668.0,STARLINK-5455,PAYLOAD,2023-09-22 04:04:34,14.98313635,0.0002872,69.9988,272.5219,262.9682,97.1151,9.6666e-05,1.06e-05,0.0,0 STARLINK-5455,1 55668U 23021AS  23265.16984773  .00001060  00000-0  96666-4 0  9995,2 55668  69.9988 272.5219 0002872 262.9682  97.1151 14.98313635 34243,6950.243,96.108,574.105,570.112,0.0
55668.0,STARLINK-5455,PAYLOAD,2023-09-22 10:29:07,14.98316165,0.000285,69.9989,271.8487,263.1225,96.961,0.00011738,1.307e-05,0.0,0 STARLINK-5455,1 55668U 23021AS  23265.43688830  .00001307  00000-0  11738-3 0  9990,2 55668  69.9989 271.8487 0002850 263.1225  96.9610 14.98316165 34580,6950.236,96.108,574.081,570.12,0.0
